[{"OBJECT_NAME":"ONEWEB-0439","OBJECT_ID":"2022-012P","EPOCH":"2026-03-09T22:01:17.565888","MEAN_MOTION":13.10375228,"ECCENTRICITY":0.0001742,"INCLINATION":87.8773,"RA_OF_ASC_NODE":56.0355,"ARG_OF_PERICENTER":87.1621,"MEAN_ANOMALY":272.9706,"EPHEMERIS_TYPE":0,"CLASSIFICATION_TYPE":"U","NORAD_CAT_ID":51635,"ELEMENT_SET_NO":999,"REV_AT_EPOCH":19632,"BSTAR":-0.0014744001,"MEAN_MOTION_DOT":-5.02e-6,"MEAN_MOTION_DDOT":0},{"OBJECT_NAME":"DELTA 1 DEB","OBJECT_ID":"1975-052EM","EPOCH":"2026-03-09T22:14:25.171008","MEAN_MOTION":13.268989,"ECCENTRICITY":0.01187124,"INCLINATION":99.8505,"RA_OF_ASC_NODE":224.5635,"ARG_OF_PERICENTER":302.0692,"MEAN_ANOMALY":184.9338,"EPHEMERIS_TYPE":0,"CLASSIFICATION_TYPE":"U","NORAD_CAT_ID":21453,"ELEMENT_SET_NO":999,"REV_AT_EPOCH":68560,"BSTAR":0.0006944758,"MEAN_MOTION_DOT":2.79e-6,"MEAN_MOTION_DDOT":0}]
